ONEWEB-0589             
1 54655U 22166P   25175.75818425 -.00000084  00000+0 -23555-3 0  9998
2 54655  87.9267 315.2830 0001060 106.1948 253.9302 13.21827316124324
ONEWEB-0590             
1 54656U 22166Q   25175.78171081  .00000030  00000+0  42167-4 0  9992
2 54656  87.9253 315.2582 0001888  84.0277 276.1072 13.21824985124310
ONEWEB-0591             
1 54657U 22166R   25175.64307279  .00000014  00000+0  15103-5 0  9991
2 54657  87.9264 315.3056 0001709  97.4162 262.7166 13.21827376124326
ONEWEB-0592             
1 54658U 22166S   25175.11635190 -.00000019  00000+0 -77052-4 0  9997
2 54658  87.9264 315.3625 0001731  95.3016 264.8316 13.21827082124132
ONEWEB-0593             
1 54659U 22166T   25175.36709097 -.00000021  00000+0 -81497-4 0  9994
2 54659  87.9266 315.3516 0001638  98.5493 261.5826 13.21827325124279
ONEWEB-0594             
1 54660U 22166U   25175.76448006 -.00014717  00000+0 -35686-1 0  9993
2 54660  87.9265 315.2856 0001659 107.2083 252.9232 13.21898186124348
ONEWEB-0595             
1 54661U 22166V   25175.74241806 -.00000015  00000+0 -68466-4 0  9992
2 54661  87.9270 315.2681 0002068  96.1086 264.0284 13.21827219124312
ONEWEB-0596             
1 54662U 22166W   25175.33713608  .00000036  00000+0  54911-4 0  9993
2 54662  87.9269 315.3614 0001843  95.0056 265.1289 13.21826749124261
